{
  "type": "FeatureCollection",
  "features": [
    {
      "type": "Feature",
      "properties": {
        "norad_id": 41026,
        "name": "YAOGAN-28",
        "group": "resource",
        "lat": 14.401459612128903,
        "lon": -46.0647059530296,
        "alt_km": 489.61518640515715,
        "timestamp": "2025-12-20T11:30:28.028376+00:00",
        "meta_object_name": "YAOGAN-28",
        "meta_object_id": "2015-064A",
        "meta_epoch": "2025-12-20T04:29:04.447392",
        "meta_mean_motion": 15.24466155,
        "meta_eccentricity": 0.0012621,
        "meta_inclination": 97.281,
        "meta_ra_of_asc_node": 131.7695,
        "meta_arg_of_pericenter": 102.352,
        "meta_mean_anomaly": 257.9131,
        "meta_ephemeris_type": 0,
        "meta_classification_type": "U",
        "meta_norad_cat_id": 41026,
        "meta_element_set_no": 999,
        "meta_rev_at_epoch": 56338,
        "meta_bstar": 0.00023063,
        "meta_mean_motion_dot": 5.606e-05,
        "meta_mean_motion_ddot": 0,
        "tle_line1": "1 41026U 15064A   25354.18685703  .00005606  00000+0  23063-3 0  9999",
        "tle_line2": "2 41026  97.2810 131.7695 0012621 102.3520 257.9131 15.24466155563381"
      },
      "geometry": {
        "type": "Point",
        "coordinates": [
          -46.0647059530296,
          14.401459612128903
        ]
      }
    },
    {
      "type": "Feature",
      "properties": {
        "norad_id": 41038,
        "name": "YAOGAN-29",
        "group": "resource",
        "lat": -6.731549437288643,
        "lon": -163.27712817210767,
        "alt_km": 623.7243402793829,
        "timestamp": "2025-12-20T11:30:28.028386+00:00",
        "meta_object_name": "YAOGAN-29",
        "meta_object_id": "2015-069A",
        "meta_epoch": "2025-12-20T04:11:26.896704",
        "meta_mean_motion": 14.82892016,
        "meta_eccentricity": 4.96e-05,
        "meta_inclination": 98.0211,
        "meta_ra_of_asc_node": 17.3707,
        "meta_arg_of_pericenter": 175.9827,
        "meta_mean_anomaly": 184.139,
        "meta_ephemeris_type": 0,
        "meta_classification_type": "U",
        "meta_norad_cat_id": 41038,
        "meta_element_set_no": 999,
        "meta_rev_at_epoch": 54409,
        "meta_bstar": 9.9886e-05,
        "meta_mean_motion_dot": 7.55e-06,
        "meta_mean_motion_ddot": 0,
        "tle_line1": "1 41038U 15069A   25354.17461686  .00000755  00000+0  99886-4 0  9995",
        "tle_line2": "2 41038  98.0211  17.3707 0000496 175.9827 184.1390 14.82892016544091"
      },
      "geometry": {
        "type": "Point",
        "coordinates": [
          -163.27712817210767,
          -6.731549437288643
        ]
      }
    },
    {
      "type": "Feature",
      "properties": {
        "norad_id": 41167,
        "name": "KENT RIDGE 1",
        "group": "resource",
        "lat": -6.005901946401477,
        "lon": -3.1162047677598337,
        "alt_km": 494.01423351079484,
        "timestamp": "2025-12-20T11:30:28.028396+00:00",
        "meta_object_name": "KENT RIDGE 1",
        "meta_object_id": "2015-077B",
        "meta_epoch": "2025-12-20T02:45:02.433600",
        "meta_mean_motion": 15.21689369,
        "meta_eccentricity": 0.0008514,
        "meta_inclination": 14.9782,
        "meta_ra_of_asc_node": 156.4146,
        "meta_arg_of_pericenter": 235.187,
        "meta_mean_anomaly": 124.765,
        "meta_ephemeris_type": 0,
        "meta_classification_type": "U",
        "meta_norad_cat_id": 41167,
        "meta_element_set_no": 999,
        "meta_rev_at_epoch": 55376,
        "meta_bstar": 0.00011727,
        "meta_mean_motion_dot": 3.486e-05,
        "meta_mean_motion_ddot": 0,
        "tle_line1": "1 41167U 15077B   25354.11461150  .00003486  00000+0  11727-3 0  9998",
        "tle_line2": "2 41167  14.9782 156.4146 0008514 235.1870 124.7650 15.21689369553764"
      },
      "geometry": {
        "type": "Point",
        "coordinates": [
          -3.1162047677598337,
          -6.005901946401477
        ]
      }
    },
    {
      "type": "Feature",
      "properties": {
        "norad_id": 41194,
        "name": "GAOFEN-4",
        "group": "resource",
        "lat": -0.1755504369576195,
        "lon": 7.630362611486425,
        "alt_km": 35797.90496222735,
        "timestamp": "2025-12-20T11:30:28.028409+00:00",
        "meta_object_name": "GAOFEN-4",
        "meta_object_id": "2015-083A",
        "meta_epoch": "2025-12-19T15:27:26.627616",
        "meta_mean_motion": 1.00273138,
        "meta_eccentricity": 0.0002945,
        "meta_inclination": 0.1878,
        "meta_ra_of_asc_node": 81.7841,
        "meta_arg_of_pericenter": 93.4275,
        "meta_mean_anomaly": 250.8523,
        "meta_ephemeris_type": 0,
        "meta_classification_type": "U",
        "meta_norad_cat_id": 41194,
        "meta_element_set_no": 999,
        "meta_rev_at_epoch": 3672,
        "meta_bstar": 0,
        "meta_mean_motion_dot": -3.11e-06,
        "meta_mean_motion_ddot": 0,
        "tle_line1": "1 41194U 15083A   25353.64405819 -.00000311  00000+0  00000+0 0  9995",
        "tle_line2": "2 41194   0.1878  81.7841 0002945  93.4275 250.8523  1.00273138 36722"
      },
      "geometry": {
        "type": "Point",
        "coordinates": [
          7.630362611486425,
          -0.1755504369576195
        ]
      }
    },
    {
      "type": "Feature",
      "properties": {
        "norad_id": 41240,
        "name": "JASON-3",
        "group": "resource",
        "lat": -4.779923618306783,
        "lon": -36.31701374826625,
        "alt_km": 1313.083528133363,
        "timestamp": "2025-12-20T11:30:28.028420+00:00",
        "meta_object_name": "JASON-3",
        "meta_object_id": "2016-002A",
        "meta_epoch": "2025-12-20T03:05:33.153216",
        "meta_mean_motion": 12.87626867,
        "meta_eccentricity": 0.0007217,
        "meta_inclination": 66.0399,
        "meta_ra_of_asc_node": 142.2892,
        "meta_arg_of_pericenter": 271.2706,
        "meta_mean_anomaly": 88.7485,
        "meta_ephemeris_type": 0,
        "meta_classification_type": "U",
        "meta_norad_cat_id": 41240,
        "meta_element_set_no": 999,
        "meta_rev_at_epoch": 46419,
        "meta_bstar": -2.2119e-05,
        "meta_mean_motion_dot": -6.8e-07,
        "meta_mean_motion_ddot": 0,
        "tle_line1": "1 41240U 16002A   25354.12885594 -.00000068  00000+0 -22119-4 0  9995",
        "tle_line2": "2 41240  66.0399 142.2892 0007217 271.2706  88.7485 12.87626867464193"
      },
      "geometry": {
        "type": "Point",
        "coordinates": [
          -36.31701374826625,
          -4.779923618306783
        ]
      }
    },
    {
      "type": "Feature",
      "properties": {
        "norad_id": 41335,
        "name": "SENTINEL-3A",
        "group": "resource",
        "lat": 55.196229221110386,
        "lon": -107.99555676230628,
        "alt_km": 796.8319199230955,
        "timestamp": "2025-12-20T11:30:28.028431+00:00",
        "meta_object_name": "SENTINEL-3A",
        "meta_object_id": "2016-011A",
        "meta_epoch": "2025-12-20T04:11:49.855776",
        "meta_mean_motion": 14.26733364,
        "meta_eccentricity": 9.03e-05,
        "meta_inclination": 98.6305,
        "meta_ra_of_asc_node": 59.0836,
        "meta_arg_of_pericenter": 93.9672,
        "meta_mean_anomaly": 266.1612,
        "meta_ephemeris_type": 0,
        "meta_classification_type": "U",
        "meta_norad_cat_id": 41335,
        "meta_element_set_no": 999,
        "meta_rev_at_epoch": 51253,
        "meta_bstar": 5.9605e-05,
        "meta_mean_motion_dot": 1.01e-06,
        "meta_mean_motion_ddot": 0,
        "tle_line1": "1 41335U 16011A   25354.17488259  .00000101  00000+0  59605-4 0  9998",
        "tle_line2": "2 41335  98.6305  59.0836 0000903  93.9672 266.1612 14.26733364512537"
      },
      "geometry": {
        "type": "Point",
        "coordinates": [
          -107.99555676230628,
          55.196229221110386
        ]
      }
    },
    {
      "type": "Feature",
      "properties": {
        "norad_id": 41556,
        "name": "ZIYUAN 3-02 (ZY 3-02)",
        "group": "resource",
        "lat": -13.78738514982648,
        "lon": 70.3467103261623,
        "alt_km": 511.8114556958053,
        "timestamp": "2025-12-20T11:30:28.028442+00:00",
        "meta_object_name": "ZIYUAN 3-02 (ZY 3-02)",
        "meta_object_id": "2016-033A",
        "meta_epoch": "2025-12-20T05:15:13.786848",
        "meta_mean_motion": 15.21154286,
        "meta_eccentricity": 0.0011029,
        "meta_inclination": 97.404,
        "meta_ra_of_asc_node": 68.2619,
        "meta_arg_of_pericenter": 218.1615,
        "meta_mean_anomaly": 141.884,
        "meta_ephemeris_type": 0,
        "meta_classification_type": "U",
        "meta_norad_cat_id": 41556,
        "meta_element_set_no": 999,
        "meta_rev_at_epoch": 53077,
        "meta_bstar": 0.00023008,
        "meta_mean_motion_dot": 5.063e-05,
        "meta_mean_motion_ddot": 0,
        "tle_line1": "1 41556U 16033A   25354.21890957  .00005063  00000+0  23008-3 0  9993",
        "tle_line2": "2 41556  97.4040  68.2619 0011029 218.1615 141.8840 15.21154286530779"
      },
      "geometry": {
        "type": "Point",
        "coordinates": [
          70.3467103261623,
          -13.78738514982648
        ]
      }
    }
  ]
}